[
  {
    "Office Name":"BAL",
    "BAL":0,
    "CLA":21,
    "DPE":8.5,
    "HOM":9.9,
    "JCO":26.2,
    "NOR":24.3,
    "OFA":27.5,
    "SCH":17.8,
    "SCO":19.7,
    "TCO":8.3,
    "TRO":40,
    "City":"Ballwin",
    "Office Address":"16442 Village Plaza View",
    "State":"MO",
    "Zip":63011
  },
  {
    "Office Name":"CLA",
    "BAL":20,
    "CLA":0,
    "DPE":10.9,
    "HOM":10.7,
    "JCO":27,
    "NOR":18.5,
    "OFA":27.9,
    "SCH":26.5,
    "SCO":20.5,
    "TCO":11.7,
    "TRO":48.7,
    "City":"Clayton",
    "Office Address":"7721 Clayton Road",
    "State":"MO",
    "Zip":63117
  },
  {
    "Office Name":"DPE",
    "BAL":8.6,
    "CLA":12.1,
    "DPE":0,
    "HOM":1.4,
    "JCO":17.7,
    "NOR":15.6,
    "OFA":24.9,
    "SCH":20.6,
    "SCO":11.2,
    "TCO":8.7,
    "TRO":45.7,
    "City":"St.Louis",
    "Office Address":"13275 Manchester Road",
    "State":"MO",
    "Zip":63131
  },
  {
    "Office Name":"HOM",
    "BAL":9.7,
    "CLA":11.2,
    "DPE":1.1,
    "HOM":0,
    "JCO":17.9,
    "NOR":14.7,
    "OFA":24,
    "SCH":19.8,
    "SCO":11.4,
    "TCO":7.1,
    "TRO":44.8,
    "City":"St .Louis",
    "Office Address":"1650 DesPeres Road",
    "State":"MO",
    "Zip":63131
  },
  {
    "Office Name":"JCO",
    "BAL":26.7,
    "CLA":23.7,
    "DPE":18.2,
    "HOM":17.7,
    "JCO":0,
    "NOR":31.4,
    "OFA":40.7,
    "SCH":36.6,
    "SCO":7.4,
    "TCO":24.5,
    "TRO":61.5,
    "City":"Arnold",
    "Office Address":"1895 Richardson Road",
    "State":"MO",
    "Zip":63010
  },
  {
    "Office Name":"NOR",
    "BAL":23.8,
    "CLA":14.1,
    "DPE":14.9,
    "HOM":14.6,
    "JCO":31.3,
    "NOR":0,
    "OFA":24,
    "SCH":15.9,
    "SCO":24.9,
    "TCO":16.3,
    "TRO":42.2,
    "City":"Hazelwood",
    "Office Address":"5494 Brown Road",
    "State":"MO",
    "Zip":63042
  },
  {
    "Office Name":"OFA",
    "BAL":19.2,
    "CLA":27.2,
    "DPE":23.5,
    "HOM":23.1,
    "JCO":39.9,
    "NOR":17.9,
    "OFA":0,
    "SCH":9.7,
    "SCO":33.5,
    "TCO":18.1,
    "TRO":22.9,
    "City":"St.Charles",
    "Office Address":"3070 Winghaven Blvd",
    "State":"MO",
    "Zip":63368
  },
  {
    "Office Name":"SCH",
    "BAL":18.5,
    "CLA":28.1,
    "DPE":20,
    "HOM":19.6,
    "JCO":35.9,
    "NOR":16.2,
    "OFA":10,
    "SCH":0,
    "SCO":29.4,
    "TCO":15.4,
    "TRO":30.8,
    "City":"St.Charles",
    "Office Address":"6149 Mid Rivers Mall Drive",
    "State":"MO",
    "Zip":63304
  },
  {
    "Office Name":"SCO",
    "BAL":20.6,
    "CLA":17.5,
    "DPE":12,
    "HOM":11.6,
    "JCO":8.5,
    "NOR":25.2,
    "OFA":24.2,
    "SCH":30.4,
    "SCO":0,
    "TCO":18.8,
    "TRO":55.2,
    "City":"St.Louis",
    "Office Address":"4448 Lemay Ferry Road",
    "State":"MO",
    "Zip":63129
  },
  {
    "Office Name":"TCO",
    "BAL":8.5,
    "CLA":12.9,
    "DPE":5.9,
    "HOM":6.1,
    "JCO":19.5,
    "NOR":18.8,
    "OFA":20.7,
    "SCH":19,
    "SCO":16.9,
    "TCO":0,
    "TRO":41.5,
    "City":"Town and Country",
    "Office Address":"1000 Woodsmill Plaza",
    "State":"MO",
    "Zip":63017
  },
  {
    "Office Name":"TRO",
    "BAL":40,
    "CLA":48.7,
    "DPE":45.7,
    "HOM":44.8,
    "JCO":59.4,
    "NOR":42.2,
    "OFA":23.4,
    "SCH":30.8,
    "SCO":55.2,
    "TCO":41.5,
    "TRO":0,
    "City":"Troy",
    "Office Address":"15 Sydnorville Road",
    "State":"MO",
    "Zip":63379
  }
]